ONEWEB-0532             
1 55140U 23004A   25300.21305725  .00000066  00000+0  13706-3 0  9990
2 55140  87.9123  52.1843 0001652  85.7973 274.3348 13.17649735136909
ONEWEB-0533             
1 55141U 23004B   25300.24794993  .00000336  00000+0  89729-3 0  9991
2 55141  87.8971  36.9371 0001537 104.5410 255.5889 13.12444972137503
ONEWEB-0541             
1 55142U 23004C   25300.09567302 -.00000082  00000+0 -26599-3 0  9993
2 55142  87.8843  67.4652 0001719  94.8840 265.2484 13.11418513135398
ONEWEB-0543             
1 55143U 23004D   25300.22296434  .00000062  00000+0  12574-3 0  9998
2 55143  87.9210  21.7706 0001815 109.9206 250.2122 13.18685849138999
ONEWEB-0544             
1 55144U 23004E   25300.21637027  .00000057  00000+0  11172-3 0  9992
2 55144  87.9207  21.7616 0001970 105.7795 254.3555 13.18686458138997
ONEWEB-0560             
1 55145U 23004F   25300.20977382  .00000027  00000+0  35294-4 0  9992
2 55145  87.9218  21.7459 0002079 105.6570 254.4792 13.18685790139001
ONEWEB-0565             
1 55146U 23004G   25300.27905146  .00000074  00000+0  15582-3 0  9998
2 55146  87.9209  21.7829 0002264  93.1691 266.9700 13.18686111139009
ONEWEB-0567             
1 55147U 23004H   25300.27245303  .00000092  00000+0  20045-3 0  9991
2 55147  87.9216  21.7469 0002232  98.8405 261.2980 13.18686145139003
ONEWEB-0569             
1 55148U 23004J   25300.20938220 -.00018235  00000+0 -50000-1 0  9994
2 55148  87.9041   6.5067 0002291 110.3696 249.7679 13.13563345139593
ONEWEB-0570             
1 55149U 23004K   25300.26255730  .00000031  00000+0  45148-4 0  9992
2 55149  87.9216  21.7490 0001912  83.8652 276.2698 13.18685619138995
ONEWEB-0571             
1 55150U 23004L   25300.25595931  .00000115  00000+0  25861-3 0  9995
2 55150  87.9210  21.7524 0003088  94.8149 265.3336 13.18687688139007
ONEWEB-0572             
1 55151U 23004M   25300.24342877  .00000093  00000+0  20627-3 0  9994
2 55151  87.9127  52.1874 0001876  96.6842 263.4503 13.17648958136800
ONEWEB-0573             
1 55152U 23004N   25300.24936469  .00000115  00000+0  25967-3 0  9998
2 55152  87.9210  21.7607 0002477  86.2366 273.9049 13.18686506138999
ONEWEB-0588             
1 55153U 23004P   25300.24276128  .00000092  00000+0  20094-3 0  9998
2 55153  87.9219  21.7521 0001968  87.8717 272.2641 13.18686148138997
ONEWEB-0598             
1 55154U 23004Q   25300.07361300 -.00000459  00000+0 -13320-2 0  9999
2 55154  87.8833  67.5006 0002234 101.7918 258.3461 13.11414847135340
ONEWEB-0599             
1 55155U 23004R   25300.05273858 -.00000009  00000+0 -57225-4 0  9993
2 55155  87.9123  52.2284 0001849 104.6785 255.4552 13.17648756136780
ONEWEB-0614             
1 55156U 23004S   25299.91594647 -.00000381  00000+0 -11104-2 0  9995
2 55156  87.8833  67.5417 0001442  87.2283 272.9010 13.11415894135267
