[{"OBJECT_NAME":"ONEWEB-0532","OBJECT_ID":"2023-004A","EPOCH":"2025-10-27T05:06:48.146400","MEAN_MOTION":13.17649735,"ECCENTRICITY":0.00016523,"INCLINATION":87.9123,"RA_OF_ASC_NODE":52.1843,"ARG_OF_PERICENTER":85.7973,"MEAN_ANOMALY":274.3348,"EPHEMERIS_TYPE":0,"CLASSIFICATION_TYPE":"U","NORAD_CAT_ID":55140,"ELEMENT_SET_NO":999,"REV_AT_EPOCH":13690,"BSTAR":0.00013705656,"MEAN_MOTION_DOT":6.6e-7,"MEAN_MOTION_DDOT":0},{"OBJECT_NAME":"ONEWEB-0533","OBJECT_ID":"2023-004B","EPOCH":"2025-10-27T05:57:02.873952","MEAN_MOTION":13.12444972,"ECCENTRICITY":0.00015378,"INCLINATION":87.8971,"RA_OF_ASC_NODE":36.9371,"ARG_OF_PERICENTER":104.541,"MEAN_ANOMALY":255.5889,"EPHEMERIS_TYPE":0,"CLASSIFICATION_TYPE":"U","NORAD_CAT_ID":55141,"ELEMENT_SET_NO":999,"REV_AT_EPOCH":13750,"BSTAR":0.00089729159,"MEAN_MOTION_DOT":3.36e-6,"MEAN_MOTION_DDOT":0},{"OBJECT_NAME":"ONEWEB-0541","OBJECT_ID":"2023-004C","EPOCH":"2025-10-27T02:17:46.148928","MEAN_MOTION":13.11418513,"ECCENTRICITY":0.00017195,"INCLINATION":87.8843,"RA_OF_ASC_NODE":67.4652,"ARG_OF_PERICENTER":94.884,"MEAN_ANOMALY":265.2484,"EPHEMERIS_TYPE":0,"CLASSIFICATION_TYPE":"U","NORAD_CAT_ID":55142,"ELEMENT_SET_NO":999,"REV_AT_EPOCH":13539,"BSTAR":-0.00026599357,"MEAN_MOTION_DOT":-8.2e-7,"MEAN_MOTION_DDOT":0},{"OBJECT_NAME":"ONEWEB-0543","OBJECT_ID":"2023-004D","EPOCH":"2025-10-27T05:21:04.118976","MEAN_MOTION":13.18685849,"ECCENTRICITY":0.00018152,"INCLINATION":87.921,"RA_OF_ASC_NODE":21.7706,"ARG_OF_PERICENTER":109.9206,"MEAN_ANOMALY":250.2122,"EPHEMERIS_TYPE":0,"CLASSIFICATION_TYPE":"U","NORAD_CAT_ID":55143,"ELEMENT_SET_NO":999,"REV_AT_EPOCH":13899,"BSTAR":0.00012574053,"MEAN_MOTION_DOT":6.2e-7,"MEAN_MOTION_DDOT":0},{"OBJECT_NAME":"ONEWEB-0544","OBJECT_ID":"2023-004E","EPOCH":"2025-10-27T05:11:34.391328","MEAN_MOTION":13.18686458,"ECCENTRICITY":0.00019701,"INCLINATION":87.9207,"RA_OF_ASC_NODE":21.7616,"ARG_OF_PERICENTER":105.7795,"MEAN_ANOMALY":254.3555,"EPHEMERIS_TYPE":0,"CLASSIFICATION_TYPE":"U","NORAD_CAT_ID":55144,"ELEMENT_SET_NO":999,"REV_AT_EPOCH":13899,"BSTAR":0.00011171888,"MEAN_MOTION_DOT":5.7e-7,"MEAN_MOTION_DDOT":0},{"OBJECT_NAME":"ONEWEB-0560","OBJECT_ID":"2023-004F","EPOCH":"2025-10-27T05:02:04.458048","MEAN_MOTION":13.1868579,"ECCENTRICITY":0.00020796,"INCLINATION":87.9218,"RA_OF_ASC_NODE":21.7459,"ARG_OF_PERICENTER":105.657,"MEAN_ANOMALY":254.4792,"EPHEMERIS_TYPE":0,"CLASSIFICATION_TYPE":"U","NORAD_CAT_ID":55145,"ELEMENT_SET_NO":999,"REV_AT_EPOCH":13900,"BSTAR":3.529393e-5,"MEAN_MOTION_DOT":2.7e-7,"MEAN_MOTION_DDOT":0},{"OBJECT_NAME":"ONEWEB-0565","OBJECT_ID":"2023-004G","EPOCH":"2025-10-27T06:41:50.046144","MEAN_MOTION":13.18686111,"ECCENTRICITY":0.00022647,"INCLINATION":87.9209,"RA_OF_ASC_NODE":21.7829,"ARG_OF_PERICENTER":93.1691,"MEAN_ANOMALY":266.97,"EPHEMERIS_TYPE":0,"CLASSIFICATION_TYPE":"U","NORAD_CAT_ID":55146,"ELEMENT_SET_NO":999,"REV_AT_EPOCH":13900,"BSTAR":0.00015582034,"MEAN_MOTION_DOT":7.4e-7,"MEAN_MOTION_DDOT":0},{"OBJECT_NAME":"ONEWEB-0567","OBJECT_ID":"2023-004H","EPOCH":"2025-10-27T06:32:19.941792","MEAN_MOTION":13.18686145,"ECCENTRICITY":0.00022328,"INCLINATION":87.9216,"RA_OF_ASC_NODE":21.7469,"ARG_OF_PERICENTER":98.8405,"MEAN_ANOMALY":261.298,"EPHEMERIS_TYPE":0,"CLASSIFICATION_TYPE":"U","NORAD_CAT_ID":55147,"ELEMENT_SET_NO":999,"REV_AT_EPOCH":13900,"BSTAR":0.00020044573,"MEAN_MOTION_DOT":9.2e-7,"MEAN_MOTION_DDOT":0},{"OBJECT_NAME":"ONEWEB-0569","OBJECT_ID":"2023-004J","EPOCH":"2025-10-27T05:01:30.622080","MEAN_MOTION":13.13563345,"ECCENTRICITY":0.00022913,"INCLINATION":87.9041,"RA_OF_ASC_NODE":6.5067,"ARG_OF_PERICENTER":110.3696,"MEAN_ANOMALY":249.7679,"EPHEMERIS_TYPE":0,"CLASSIFICATION_TYPE":"U","NORAD_CAT_ID":55148,"ELEMENT_SET_NO":999,"REV_AT_EPOCH":13959,"BSTAR":-0.049999938,"MEAN_MOTION_DOT":-0.00018235,"MEAN_MOTION_DDOT":0},{"OBJECT_NAME":"ONEWEB-0570","OBJECT_ID":"2023-004K","EPOCH":"2025-10-27T06:18:04.950720","MEAN_MOTION":13.18685619,"ECCENTRICITY":0.00019129,"INCLINATION":87.9216,"RA_OF_ASC_NODE":21.749,"ARG_OF_PERICENTER":83.8652,"MEAN_ANOMALY":276.2698,"EPHEMERIS_TYPE":0,"CLASSIFICATION_TYPE":"U","NORAD_CAT_ID":55149,"ELEMENT_SET_NO":999,"REV_AT_EPOCH":13899,"BSTAR":4.5147527e-5,"MEAN_MOTION_DOT":3.1e-7,"MEAN_MOTION_DDOT":0},{"OBJECT_NAME":"ONEWEB-0571","OBJECT_ID":"2023-004L","EPOCH":"2025-10-27T06:08:34.884384","MEAN_MOTION":13.18687688,"ECCENTRICITY":0.0003088,"INCLINATION":87.921,"RA_OF_ASC_NODE":21.7524,"ARG_OF_PERICENTER":94.8149,"MEAN_ANOMALY":265.3336,"EPHEMERIS_TYPE":0,"CLASSIFICATION_TYPE":"U","NORAD_CAT_ID":55150,"ELEMENT_SET_NO":999,"REV_AT_EPOCH":13900,"BSTAR":0.00025860797,"MEAN_MOTION_DOT":1.15e-6,"MEAN_MOTION_DDOT":0},{"OBJECT_NAME":"ONEWEB-0572","OBJECT_ID":"2023-004M","EPOCH":"2025-10-27T05:50:32.245728","MEAN_MOTION":13.17648958,"ECCENTRICITY":0.0001876,"INCLINATION":87.9127,"RA_OF_ASC_NODE":52.1874,"ARG_OF_PERICENTER":96.6842,"MEAN_ANOMALY":263.4503,"EPHEMERIS_TYPE":0,"CLASSIFICATION_TYPE":"U","NORAD_CAT_ID":55151,"ELEMENT_SET_NO":999,"REV_AT_EPOCH":13680,"BSTAR":0.00020627277,"MEAN_MOTION_DOT":9.3e-7,"MEAN_MOTION_DDOT":0},{"OBJECT_NAME":"ONEWEB-0573","OBJECT_ID":"2023-004N","EPOCH":"2025-10-27T05:59:05.109216","MEAN_MOTION":13.18686506,"ECCENTRICITY":0.0002477,"INCLINATION":87.921,"RA_OF_ASC_NODE":21.7607,"ARG_OF_PERICENTER":86.2366,"MEAN_ANOMALY":273.9049,"EPHEMERIS_TYPE":0,"CLASSIFICATION_TYPE":"U","NORAD_CAT_ID":55152,"ELEMENT_SET_NO":999,"REV_AT_EPOCH":13899,"BSTAR":0.00025967442,"MEAN_MOTION_DOT":1.15e-6,"MEAN_MOTION_DDOT":0},{"OBJECT_NAME":"ONEWEB-0588","OBJECT_ID":"2023-004P","EPOCH":"2025-10-27T05:49:34.574592","MEAN_MOTION":13.18686148,"ECCENTRICITY":0.00019689,"INCLINATION":87.9219,"RA_OF_ASC_NODE":21.7521,"ARG_OF_PERICENTER":87.8717,"MEAN_ANOMALY":272.2641,"EPHEMERIS_TYPE":0,"CLASSIFICATION_TYPE":"U","NORAD_CAT_ID":55153,"ELEMENT_SET_NO":999,"REV_AT_EPOCH":13899,"BSTAR":0.00020094179,"MEAN_MOTION_DOT":9.2e-7,"MEAN_MOTION_DDOT":0},{"OBJECT_NAME":"ONEWEB-0598","OBJECT_ID":"2023-004Q","EPOCH":"2025-10-27T01:46:00.163200","MEAN_MOTION":13.11414847,"ECCENTRICITY":0.00022348,"INCLINATION":87.8833,"RA_OF_ASC_NODE":67.5006,"ARG_OF_PERICENTER":101.7918,"MEAN_ANOMALY":258.3461,"EPHEMERIS_TYPE":0,"CLASSIFICATION_TYPE":"U","NORAD_CAT_ID":55154,"ELEMENT_SET_NO":999,"REV_AT_EPOCH":13534,"BSTAR":-0.0013320384,"MEAN_MOTION_DOT":-4.59e-6,"MEAN_MOTION_DDOT":0},{"OBJECT_NAME":"ONEWEB-0599","OBJECT_ID":"2023-004R","EPOCH":"2025-10-27T01:15:56.613312","MEAN_MOTION":13.17648756,"ECCENTRICITY":0.00018493,"INCLINATION":87.9123,"RA_OF_ASC_NODE":52.2284,"ARG_OF_PERICENTER":104.6785,"MEAN_ANOMALY":255.4552,"EPHEMERIS_TYPE":0,"CLASSIFICATION_TYPE":"U","NORAD_CAT_ID":55155,"ELEMENT_SET_NO":999,"REV_AT_EPOCH":13678,"BSTAR":-5.722461e-5,"MEAN_MOTION_DOT":-9.0e-8,"MEAN_MOTION_DDOT":0},{"OBJECT_NAME":"ONEWEB-0614","OBJECT_ID":"2023-004S","EPOCH":"2025-10-26T21:58:57.775008","MEAN_MOTION":13.11415894,"ECCENTRICITY":0.0001442,"INCLINATION":87.8833,"RA_OF_ASC_NODE":67.5417,"ARG_OF_PERICENTER":87.2283,"MEAN_ANOMALY":272.901,"EPHEMERIS_TYPE":0,"CLASSIFICATION_TYPE":"U","NORAD_CAT_ID":55156,"ELEMENT_SET_NO":999,"REV_AT_EPOCH":13526,"BSTAR":-0.0011104,"MEAN_MOTION_DOT":-3.81e-6,"MEAN_MOTION_DDOT":0}]
